[{"OBJECT_NAME":"STARLINK-30305","OBJECT_ID":"2023-134E","EPOCH":"2026-03-09T08:41:47.221440","MEAN_MOTION":15.27572198,"ECCENTRICITY":0.00013349,"INCLINATION":42.9993,"RA_OF_ASC_NODE":196.5981,"ARG_OF_PERICENTER":208.7239,"MEAN_ANOMALY":151.354,"EPHEMERIS_TYPE":0,"CLASSIFICATION_TYPE":"U","NORAD_CAT_ID":57775,"ELEMENT_SET_NO":999,"REV_AT_EPOCH":13945,"BSTAR":-1.3812342e-5,"MEAN_MOTION_DOT":-6.42e-6,"MEAN_MOTION_DDOT":0},{"OBJECT_NAME":"XCUBE-1","OBJECT_ID":"2024-247Z","EPOCH":"2026-03-09T11:35:28.885344","MEAN_MOTION":15.27910558,"ECCENTRICITY":0.00052355,"INCLINATION":44.9938,"RA_OF_ASC_NODE":117.7807,"ARG_OF_PERICENTER":331.1499,"MEAN_ANOMALY":28.9094,"EPHEMERIS_TYPE":0,"CLASSIFICATION_TYPE":"U","NORAD_CAT_ID":62400,"ELEMENT_SET_NO":999,"REV_AT_EPOCH":6770,"BSTAR":0.00036224252,"MEAN_MOTION_DOT":9.773e-5,"MEAN_MOTION_DDOT":0}]
